{
  "type": "FeatureCollection",
  "features": [
    {
      "type": "Feature",
      "properties": {
        "norad_id": 35915,
        "name": "IRIDIUM 33 DEB",
        "group": "iridium-33-debris",
        "lat": 19.302134339184583,
        "lon": 158.38145348491162,
        "alt_km": 618.9292160059204,
        "timestamp": "2025-12-19T22:41:52.781225+00:00",
        "meta_object_name": "IRIDIUM 33 DEB",
        "meta_object_id": "1997-051TY",
        "meta_epoch": "2025-12-15T17:25:35.441760",
        "meta_mean_motion": 14.80816607,
        "meta_eccentricity": 0.00112544,
        "meta_inclination": 86.3436,
        "meta_ra_of_asc_node": 341.593,
        "meta_arg_of_pericenter": 174.6839,
        "meta_mean_anomaly": 185.4504,
        "meta_ephemeris_type": 0,
        "meta_classification_type": "U",
        "meta_norad_cat_id": 35915,
        "meta_element_set_no": 999,
        "meta_rev_at_epoch": 8130,
        "meta_bstar": 0.0011378054,
        "meta_mean_motion_dot": 8.81e-05,
        "meta_mean_motion_ddot": 0,
        "tle_line1": "1 35915U 97051TY  25349.72610465  .00008810  00000+0  11378-2 0  9997",
        "tle_line2": "2 35915  86.3436 341.5930 0011254 174.6839 185.4504 14.80816607 81301"
      },
      "geometry": {
        "type": "Point",
        "coordinates": [
          158.38145348491162,
          19.302134339184583
        ]
      }
    },
    {
      "type": "Feature",
      "properties": {
        "norad_id": 35918,
        "name": "IRIDIUM 33 DEB",
        "group": "iridium-33-debris",
        "lat": -86.38880988590383,
        "lon": -12.998428554177915,
        "alt_km": 740.0339223873061,
        "timestamp": "2025-12-19T22:41:52.781236+00:00",
        "meta_object_name": "IRIDIUM 33 DEB",
        "meta_object_id": "1997-051UB",
        "meta_epoch": "2025-12-16T12:39:39.180384",
        "meta_mean_motion": 14.5127814,
        "meta_eccentricity": 0.0027979,
        "meta_inclination": 86.4012,
        "meta_ra_of_asc_node": 74.1902,
        "meta_arg_of_pericenter": 157.398,
        "meta_mean_anomaly": 265.1439,
        "meta_ephemeris_type": 0,
        "meta_classification_type": "U",
        "meta_norad_cat_id": 35918,
        "meta_element_set_no": 999,
        "meta_rev_at_epoch": 85262,
        "meta_bstar": 0.00077323104,
        "meta_mean_motion_dot": 3.111e-05,
        "meta_mean_motion_ddot": 0,
        "tle_line1": "1 35918U 97051UB  25350.52753681  .00003111  00000+0  77323-3 0  9990",
        "tle_line2": "2 35918  86.4012  74.1902 0027979 157.3980 265.1439 14.51278140852625"
      },
      "geometry": {
        "type": "Point",
        "coordinates": [
          -12.998428554177915,
          -86.38880988590383
        ]
      }
    },
    {
      "type": "Feature",
      "properties": {
        "norad_id": 35929,
        "name": "IRIDIUM 33 DEB",
        "group": "iridium-33-debris",
        "lat": -85.94841441192624,
        "lon": -115.65873338991503,
        "alt_km": 568.0135299224021,
        "timestamp": "2025-12-19T22:41:52.781267+00:00",
        "meta_object_name": "IRIDIUM 33 DEB",
        "meta_object_id": "1997-051UN",
        "meta_epoch": "2025-12-19T03:54:47.819808",
        "meta_mean_motion": 15.02824577,
        "meta_eccentricity": 0.00169983,
        "meta_inclination": 86.3333,
        "meta_ra_of_asc_node": 309.5832,
        "meta_arg_of_pericenter": 16.9141,
        "meta_mean_anomaly": 343.2656,
        "meta_ephemeris_type": 0,
        "meta_classification_type": "U",
        "meta_norad_cat_id": 35929,
        "meta_element_set_no": 999,
        "meta_rev_at_epoch": 87876,
        "meta_bstar": 0.0020745591,
        "meta_mean_motion_dot": 0.00027961,
        "meta_mean_motion_ddot": 0,
        "tle_line1": "1 35929U 97051UN  25353.16305347  .00027961  00000+0  20746-2 0  9992",
        "tle_line2": "2 35929  86.3333 309.5832 0016998  16.9141 343.2656 15.02824577878767"
      },
      "geometry": {
        "type": "Point",
        "coordinates": [
          -115.65873338991503,
          -85.94841441192624
        ]
      }
    },
    {
      "type": "Feature",
      "properties": {
        "norad_id": 36011,
        "name": "IRIDIUM 33 DEB",
        "group": "iridium-33-debris",
        "lat": 62.59305972032034,
        "lon": 39.41936206648446,
        "alt_km": 755.9023649021474,
        "timestamp": "2025-12-19T22:41:52.781280+00:00",
        "meta_object_name": "IRIDIUM 33 DEB",
        "meta_object_id": "1997-051US",
        "meta_epoch": "2025-12-11T21:42:29.079072",
        "meta_mean_motion": 14.41326157,
        "meta_eccentricity": 0.0017563,
        "meta_inclination": 86.3411,
        "meta_ra_of_asc_node": 35.7829,
        "meta_arg_of_pericenter": 218.6873,
        "meta_mean_anomaly": 266.0791,
        "meta_ephemeris_type": 0,
        "meta_classification_type": "U",
        "meta_norad_cat_id": 36011,
        "meta_element_set_no": 999,
        "meta_rev_at_epoch": 64528,
        "meta_bstar": 0.00076231,
        "meta_mean_motion_dot": 2.489e-05,
        "meta_mean_motion_ddot": 0,
        "tle_line1": "1 36011U 97051US  25345.90450323  .00002489  00000+0  76231-3 0  9992",
        "tle_line2": "2 36011  86.3411  35.7829 0017563 218.6873 266.0791 14.41326157645287"
      },
      "geometry": {
        "type": "Point",
        "coordinates": [
          39.41936206648446,
          62.59305972032034
        ]
      }
    },
    {
      "type": "Feature",
      "properties": {
        "norad_id": 36012,
        "name": "IRIDIUM 33 DEB",
        "group": "iridium-33-debris",
        "lat": 49.868668539405775,
        "lon": 120.39359885727984,
        "alt_km": 873.1776281319671,
        "timestamp": "2025-12-19T22:41:52.781291+00:00",
        "meta_object_name": "IRIDIUM 33 DEB",
        "meta_object_id": "1997-051UT",
        "meta_epoch": "2025-12-18T07:08:48.483168",
        "meta_mean_motion": 14.19165208,
        "meta_eccentricity": 0.0211344,
        "meta_inclination": 86.4409,
        "meta_ra_of_asc_node": 305.2919,
        "meta_arg_of_pericenter": 245.33,
        "meta_mean_anomaly": 112.5751,
        "meta_ephemeris_type": 0,
        "meta_classification_type": "U",
        "meta_norad_cat_id": 36012,
        "meta_element_set_no": 999,
        "meta_rev_at_epoch": 65563,
        "meta_bstar": 0.0043850325,
        "meta_mean_motion_dot": 0.00011493,
        "meta_mean_motion_ddot": 0,
        "tle_line1": "1 36012U 97051UT  25352.29778337  .00011493  00000+0  43850-2 0  9996",
        "tle_line2": "2 36012  86.4409 305.2919 0211344 245.3300 112.5751 14.19165208655630"
      },
      "geometry": {
        "type": "Point",
        "coordinates": [
          120.39359885727984,
          49.868668539405775
        ]
      }
    },
    {
      "type": "Feature",
      "properties": {
        "norad_id": 36028,
        "name": "IRIDIUM 33 DEB",
        "group": "iridium-33-debris",
        "lat": 32.369975714140274,
        "lon": -54.355324160100714,
        "alt_km": 564.1715996944704,
        "timestamp": "2025-12-19T22:41:52.781301+00:00",
        "meta_object_name": "IRIDIUM 33 DEB",
        "meta_object_id": "1997-051VK",
        "meta_epoch": "2025-12-19T03:17:05.091936",
        "meta_mean_motion": 14.95591145,
        "meta_eccentricity": 0.00208389,
        "meta_inclination": 86.3218,
        "meta_ra_of_asc_node": 303.6882,
        "meta_arg_of_pericenter": 33.6007,
        "meta_mean_anomaly": 326.6539,
        "meta_ephemeris_type": 0,
        "meta_classification_type": "U",
        "meta_norad_cat_id": 36028,
        "meta_element_set_no": 999,
        "meta_rev_at_epoch": 87220,
        "meta_bstar": 0.001783846,
        "meta_mean_motion_dot": 0.00019939,
        "meta_mean_motion_ddot": 0,
        "tle_line1": "1 36028U 97051VK  25353.13686449  .00019939  00000+0  17838-2 0  9999",
        "tle_line2": "2 36028  86.3218 303.6882 0020838  33.6007 326.6539 14.95591145872206"
      },
      "geometry": {
        "type": "Point",
        "coordinates": [
          -54.355324160100714,
          32.369975714140274
        ]
      }
    },
    {
      "type": "Feature",
      "properties": {
        "norad_id": 36080,
        "name": "IRIDIUM 33 DEB",
        "group": "iridium-33-debris",
        "lat": 64.79299605907944,
        "lon": 12.70750434227824,
        "alt_km": 725.5390681096396,
        "timestamp": "2025-12-19T22:41:52.781311+00:00",
        "meta_object_name": "IRIDIUM 33 DEB",
        "meta_object_id": "1997-051VM",
        "meta_epoch": "2025-12-19T07:27:26.572608",
        "meta_mean_motion": 14.4663152,
        "meta_eccentricity": 0.0018893,
        "meta_inclination": 86.3193,
        "meta_ra_of_asc_node": 5.1242,
        "meta_arg_of_pericenter": 135.9522,
        "meta_mean_anomaly": 224.319,
        "meta_ephemeris_type": 0,
        "meta_classification_type": "U",
        "meta_norad_cat_id": 36080,
        "meta_element_set_no": 999,
        "meta_rev_at_epoch": 47509,
        "meta_bstar": 0.00042458,
        "meta_mean_motion_dot": 1.555e-05,
        "meta_mean_motion_ddot": 0,
        "tle_line1": "1 36080U 97051VM  25353.31072422  .00001555  00000+0  42458-3 0  9999",
        "tle_line2": "2 36080  86.3193   5.1242 0018893 135.9522 224.3190 14.46631520475097"
      },
      "geometry": {
        "type": "Point",
        "coordinates": [
          12.70750434227824,
          64.79299605907944
        ]
      }
    }
  ]
}